[
    
    {
        "id": 233,
        "name": "United States",
        "iso3": "USA",
        "iso2": "US",
        "phone_code": "1",
        "capital": "Washington",
        "currency": "USD"
    },
    {
        "id": 232,
        "name": "United Kingdom",
        "iso3": "GBR",
        "iso2": "GB",
        "phone_code": "44",
        "capital": "London",
        "currency": "GBP"
    },
  
  {
      "id": 10,
      "name": "Antigua And Barbuda",
      "iso3": "ATG",
      "iso2": "AG",
      "phone_code": "+1-268",
      "capital": "St. John's",
      "currency": "XCD"
  },
  
  {
      "id": 14,
      "name": "Australia",
      "iso3": "AUS",
      "iso2": "AU",
      "phone_code": "61",
      "capital": "Canberra",
      "currency": "AUD"
  },
  {
      "id": 17,
      "name": "Bahamas The",
      "iso3": "BHS",
      "iso2": "BS",
      "phone_code": "+1-242",
      "capital": "Nassau",
      "currency": "BSD"
  },
  {
      "id": 20,
      "name": "Barbados",
      "iso3": "BRB",
      "iso2": "BB",
      "phone_code": "+1-246",
      "capital": "Bridgetown",
      "currency": "BBD"
  },
  
  {
      "id": 22,
      "name": "Belgium",
      "iso3": "BEL",
      "iso2": "BE",
      "phone_code": "32",
      "capital": "Brussels",
      "currency": "EUR"
  },
  {
      "id": 23,
      "name": "Belize",
      "iso3": "BLZ",
      "iso2": "BZ",
      "phone_code": "501",
      "capital": "Belmopan",
      "currency": "BZD"
  },
  {
      "id": 24,
      "name": "Benin",
      "iso3": "BEN",
      "iso2": "BJ",
      "phone_code": "229",
      "capital": "Porto-Novo",
      "currency": "XOF"
  },
  {
      "id": 39,
      "name": "Canada",
      "iso3": "CAN",
      "iso2": "CA",
      "phone_code": "1",
      "capital": "Ottawa",
      "currency": "CAD"
  },
  {
      "id": 59,
      "name": "Denmark",
      "iso3": "DNK",
      "iso2": "DK",
      "phone_code": "45",
      "capital": "Copenhagen",
      "currency": "DKK"
  },
  {
      "id": 61,
      "name": "Dominica",
      "iso3": "DMA",
      "iso2": "DM",
      "phone_code": "+1-767",
      "capital": "Roseau",
      "currency": "XCD"
  },
  {
      "id": 74,
      "name": "Finland",
      "iso3": "FIN",
      "iso2": "FI",
      "phone_code": "358",
      "capital": "Helsinki",
      "currency": "EUR"
  },
  {
    "id": 82,
    "name": "Germany",
    "iso3": "DEU",
    "iso2": "DE",
    "phone_code": "49",
    "capital": "Berlin",
    "currency": "EUR"
},
  {
      "id": 87,
      "name": "Grenada",
      "iso3": "GRD",
      "iso2": "GD",
      "phone_code": "+1-473",
      "capital": "St. George's",
      "currency": "XCD"
  },
 
  {
      "id": 94,
      "name": "Guyana",
      "iso3": "GUY",
      "iso2": "GY",
      "phone_code": "592",
      "capital": "Georgetown",
      "currency": "GYD"
  },

  {
      "id": 105,
      "name": "Ireland",
      "iso3": "IRL",
      "iso2": "IE",
      "phone_code": "353",
      "capital": "Dublin",
      "currency": "EUR"
  },
  
  {
      "id": 108,
      "name": "Jamaica",
      "iso3": "JAM",
      "iso2": "JM",
      "phone_code": "+1-876",
      "capital": "Kingston",
      "currency": "JMD"
  },
  {
    "id": 165,
    "name": "Norway",
    "iso3": "NOR",
    "iso2": "NO",
    "phone_code": "47",
    "capital": "Oslo",
    "currency": "NOK"
},
{
    "id": 156,
    "name": "Netherlands The",
    "iso3": "NLD",
    "iso2": "NL",
    "phone_code": "31",
    "capital": "Amsterdam",
    "currency": "EUR"
},
{
    "id": 176,
    "name": "Poland",
    "iso3": "POL",
    "iso2": "PL",
    "phone_code": "48",
    "capital": "Warsaw",
    "currency": "PLN"
},
{
    "id": 135,
    "name": "Malta",
    "iso3": "MLT",
    "iso2": "MT",
    "phone_code": "356",
    "capital": "Valletta",
    "currency": "EUR"
},
{
    "id": 213,
    "name": "Sweden",
    "iso3": "SWE",
    "iso2": "SE",
    "phone_code": "46",
    "capital": "Stockholm",
    "currency": "SEK"
},
{
    "id": 223,
    "name": "Trinidad And Tobago",
    "iso3": "TTO",
    "iso2": "TT",
    "phone_code": "+1-868",
    "capital": "Port of Spain",
    "currency": "TTD"
}
]